$$SOE
2460728.500000000, A.D. 2025-Feb-22 00:00:00.0000, -1.915816916695966E+08, -2.747996703147358E+08, -1.932265563148884E+07,
2460735.500000000, A.D. 2025-Mar-01 00:00:00.0000, -1.807572071705156E+08, -2.797542961551433E+08, -1.983345686429140E+07,
2460742.500000000, A.D. 2025-Mar-08 00:00:00.0000, -1.696965442431763E+08, -2.843433802085193E+08, -2.031833794422656E+07,
2460749.500000000, A.D. 2025-Mar-15 00:00:00.0000, -1.584103121505016E+08, -2.885544849177186E+08, -2.077620542939912E+07,
2460756.500000000, A.D. 2025-Mar-22 00:00:00.0000, -1.469098117031985E+08, -2.923752633500454E+08, -2.120596503854425E+07,
2460763.500000000, A.D. 2025-Mar-29 00:00:00.0000, -1.352070609646426E+08, -2.957934951085514E+08, -2.160652409895043E+07,
2460770.500000000, A.D. 2025-Apr-05 00:00:00.0000, -1.233148185048042E+08, -2.987971248287300E+08, -2.197679435705569E+07,
2460777.500000000, A.D. 2025-Apr-12 00:00:00.0000, -1.112466058117509E+08, -3.013743033275634E+08, -2.231569498397911E+07,
2460784.500000000, A.D. 2025-Apr-19 00:00:00.0000, -9.901672869017822E+07, -3.035134324402735E+08, -2.262215584741227E+07,
2460791.500000000, A.D. 2025-Apr-26 00:00:00.0000, -8.664029697606067E+07, -3.052032138790383E+08, -2.289512110669288E+07,
2460798.500000000, A.D. 2025-May-03 00:00:00.0000, -7.413324201166162E+07, -3.064327021962003E+08, -2.313355315342936E+07,
2460805.500000000, A.D. 2025-May-10 00:00:00.0000, -6.151233136779661E+07, -3.071913619074952E+08, -2.333643691026074E+07,
2460812.500000000, A.D. 2025-May-17 00:00:00.0000, -4.879518024891734E+07, -3.074691288314465E+08, -2.350278450081089E+07,
2460819.500000000, A.D. 2025-May-24 00:00:00.0000, -3.600025883181088E+07, -3.072564756568285E+08, -2.363164031307961E+07,
2460826.500000000, A.D. 2025-May-31 00:00:00.0000, -2.314689449831338E+07, -3.065444813272972E+08, -2.372208646813972E+07,
2460833.500000000, A.D. 2025-Jun-07 00:00:00.0000, -1.025526870802718E+07, -3.053249028786337E+08, -2.377324855545393E+07,
2460840.500000000, A.D. 2025-Jun-14 00:00:00.0000, 2.653589796868328E+06, -3.035902501579891E+08, -2.378430146387042E+07,
2460847.500000000, A.D. 2025-Jun-21 00:00:00.0000, 1.555781735472196E+07, -3.013338663598794E+08, -2.375447567015910E+07,
2460854.500000000, A.D. 2025-Jun-28 00:00:00.0000, 2.843473713272919E+07, -2.985500121670586E+08, -2.368306410024703E+07,
2460861.500000000, A.D. 2025-Jul-05 00:00:00.0000, 4.126088942968535E+07, -2.952339507718878E+08, -2.356942920898010E+07,
2460868.500000000, A.D. 2025-Jul-12 00:00:00.0000, 5.401207001284239E+07, -2.913820338893544E+08, -2.341301018550380E+07,
2460875.500000000, A.D. 2025-Jul-19 00:00:00.0000, 6.666337731462719E+07, -2.869917885182987E+08, -2.321333028977183E+07,
2460882.500000000, A.D. 2025-Jul-26 00:00:00.0000, 7.918926927441120E+07, -2.820620035659361E+08, -2.297000427635451E+07,
2460889.500000000, A.D. 2025-Aug-02 00:00:00.0000, 9.156363037610719E+07, -2.765928152472453E+08, -2.268274583274284E+07,
2460896.500000000, A.D. 2025-Aug-09 00:00:00.0000, 1.037598492747134E+08, -2.705857900808331E+08, -2.235137494828369E+07,
2460903.500000000, A.D. 2025-Aug-16 00:00:00.0000, 1.157509073193962E+08, -2.640440042346322E+08, -2.197582512811293E+07,
2460910.500000000, A.D. 2025-Aug-23 00:00:00.0000, 1.275094783291657E+08, -2.569721177954559E+08, -2.155615036890730E+07,
2460917.500000000, A.D. 2025-Aug-30 00:00:00.0000, 1.390080398171430E+08, -2.493764417555499E+08, -2.109253174950354E+07,
2460924.500000000, A.D. 2025-Sep-06 00:00:00.0000, 1.502189938928429E+08, -2.412649951606421E+08, -2.058528329786794E+07,
2460931.500000000, A.D. 2025-Sep-13 00:00:00.0000, 1.611147955806907E+08, -2.326475533150268E+08, -2.003485705239458E+07,
2460938.500000000, A.D. 2025-Sep-20 00:00:00.0000, 1.716680909855935E+08, -2.235356871112327E+08, -1.944184761891396E+07,
2460945.500000000, A.D. 2025-Sep-27 00:00:00.0000, 1.818518652610767E+08, -2.139427888584280E+08, -1.880699593496069E+07,
2460952.500000000, A.D. 2025-Oct-04 00:00:00.0000, 1.916395969927955E+08, -2.038840826640809E+08, -1.813119188624196E+07,
2460959.500000000, A.D. 2025-Oct-11 00:00:00.0000, 2.010054169919524E+08, -1.933766190586354E+08, -1.741547570118739E+07,
2460966.500000000, A.D. 2025-Oct-18 00:00:00.0000, 2.099242699080719E+08, -1.824392530882046E+08, -1.666103806848858E+07,
2460973.500000000, A.D. 2025-Oct-25 00:00:00.0000, 2.183720767129538E+08, -1.710926050692218E+08, -1.586921890354941E+07,
2460980.500000000, A.D. 2025-Nov-01 00:00:00.0000, 2.263258958324642E+08, -1.593590034951333E+08, -1.504150470172214E+07,
2460987.500000000, A.D. 2025-Nov-08 00:00:00.0000, 2.337640805689901E+08, -1.472624099709808E+08, -1.417952444472206E+07,
2460994.500000000, A.D. 2025-Nov-15 00:00:00.0000, 2.406664304974762E+08, -1.348283264418843E+08, -1.328504406746778E+07,
2461001.500000000, A.D. 2025-Nov-22 00:00:00.0000, 2.470143347749817E+08, -1.220836850816168E+08, -1.235995952336074E+07,
2461008.500000000, A.D. 2025-Nov-29 00:00:00.0000, 2.527909048302771E+08, -1.090567206913184E+08, -1.140628839120558E+07,
2461015.500000000, A.D. 2025-Dec-06 00:00:00.0000, 2.579810919137775E+08, -9.577682712424965E+07, -1.042615990754980E+07,
2461022.500000000, A.D. 2025-Dec-13 00:00:00.0000, 2.625717878934779E+08, -8.227440283822788E+07, -9.421803852003116E+06,
2461029.500000000, A.D. 2025-Dec-20 00:00:00.0000, 2.665519110156519E+08, -6.858068659265839E+07, -8.395538662691426E+06,
2461036.500000000, A.D. 2025-Dec-27 00:00:00.0000, 2.699124741238470E+08, -5.472758300925066E+07, -7.349758636471253E+06,
2461043.500000000, A.D. 2026-Jan-03 00:00:00.0000, 2.726466328251868E+08, -4.074748113225711E+07, -6.286920315594861E+06,
2461050.500000000, A.D. 2026-Jan-10 00:00:00.0000, 2.747497130705048E+08, -2.667306932213742E+07, -5.209528326788994E+06,
2461057.500000000, A.D. 2026-Jan-17 00:00:00.0000, 2.762192181640003E+08, -1.253714928668597E+07, -4.120120911373209E+06,
2461064.500000000, A.D. 2026-Jan-24 00:00:00.0000, 2.770548154921450E+08, 1.627548080556689E+06, -3.021255364804993E+06,
2461071.500000000, A.D. 2026-Jan-31 00:00:00.0000, 2.772583036223600E+08, 1.578854245008760E+07, -1.915493598599904E+06,
2461078.500000000, A.D. 2026-Feb-07 00:00:00.0000, 2.768335608479142E+08, 2.991377690405886E+07, -8.053880363355614E+05,
2461085.500000000, A.D. 2026-Feb-14 00:00:00.0000, 2.757864767910346E+08, 4.397178165414696E+07, 3.065319440659005E+05,
2461092.500000000, A.D. 2026-Feb-21 00:00:00.0000, 2.741248690897574E+08, 5.793182726457562E+07, 1.417772863160633E+06,
2461099.500000000, A.D. 2026-Feb-28 00:00:00.0000, 2.718583859457688E+08, 7.176406691288704E+07, 2.525889334436670E+06,
2461106.500000000, A.D. 2026-Mar-07 00:00:00.0000, 2.689983945208567E+08, 8.543966445087139E+07, 3.628495507587850E+06,
2461113.500000000, A.D. 2026-Mar-14 00:00:00.0000, 2.655578600846211E+08, 9.893090497730462E+07, 4.723275214497864E+06,
2461120.500000000, A.D. 2026-Mar-21 00:00:00.0000, 2.615512198335210E+08, 1.122112902325457E+08, 5.807990815955207E+06,
2461127.500000000, A.D. 2026-Mar-28 00:00:00.0000, 2.569942515115437E+08, 1.252556196146569E+08, 6.880490972694010E+06,
2461134.500000000, A.D. 2026-Apr-04 00:00:00.0000, 2.519039383265773E+08, 1.380400559308050E+08, 7.938717301233925E+06,
2461141.500000000, A.D. 2026-Apr-11 00:00:00.0000, 2.462983324231901E+08, 1.505421758661363E+08, 8.980709867803276E+06,
2461148.500000000, A.D. 2026-Apr-18 00:00:00.0000, 2.401964188913057E+08, 1.627410057366374E+08, 1.000461153206389E+07,
2461155.500000000, A.D. 2026-Apr-25 00:00:00.0000, 2.336179819808269E+08, 1.746170433162625E+08, 1.100867118072997E+07,
2461162.500000000, A.D. 2026-May-02 00:00:00.0000, 2.265834749701429E+08, 1.861522666513495E+08, 1.199124590325749E+07,
2461169.500000000, A.D. 2026-May-09 00:00:00.0000, 2.191138950204166E+08, 1.973301308655844E+08, 1.295080216231085E+07,
2461176.500000000, A.D. 2026-May-16 00:00:00.0000, 2.112306643935349E+08, 2.081355542492564E+08, 1.388591601446311E+07,
2461183.500000000, A.D. 2026-May-23 00:00:00.0000, 2.029555188808546E+08, 2.185548958511046E+08, 1.479527254380174E+07,
2461190.500000000, A.D. 2026-May-30 00:00:00.0000, 1.943104019472461E+08, 2.285759260948607E+08, 1.567766481165124E+07,
2461197.500000000, A.D. 2026-Jun-06 00:00:00.0000, 1.853173646739303E+08, 2.381877883575404E+08, 1.653199217510036E+07,
2461204.500000000, A.D. 2026-Jun-13 00:00:00.0000, 1.759984754236614E+08, 2.473809528826458E+08, 1.735725774379914E+07,
2461211.500000000, A.D. 2026-Jun-20 00:00:00.0000, 1.663757388229254E+08, 2.561471670534647E+08, 1.815256534397204E+07,
2461218.500000000, A.D. 2026-Jun-27 00:00:00.0000, 1.564710223201791E+08, 2.644794027204676E+08, 1.891711619859707E+07,
2461225.500000000, A.D. 2026-Jul-04 00:00:00.0000, 1.463059901718773E+08, 2.723718007667002E+08, 1.965020533702831E+07,
2461232.500000000, A.D. 2026-Jul-11 00:00:00.0000, 1.359020448730743E+08, 2.798196136514384E+08, 2.035121777074566E+07,
2461239.500000000, A.D. 2026-Jul-18 00:00:00.0000, 1.252802758154860E+08, 2.868191467397324E+08, 2.101962449330197E+07,
2461246.500000000, A.D. 2026-Jul-25 00:00:00.0000, 1.144614148315252E+08, 2.933676991119409E+08, 2.165497836049595E+07,
2461253.500000000, A.D. 2026-Aug-01 00:00:00.0000, 1.034657982655534E+08, 2.994635044078556E+08, 2.225690989405467E+07,
2461260.500000000, A.D. 2026-Aug-08 00:00:00.0000, 9.231333535276140E+07, 3.051056721876280E+08, 2.282512303161331E+07,
2461267.500000000, A.D. 2026-Aug-15 00:00:00.0000, 8.102348287117456E+07, 3.102941307000590E+08, 2.335939086134367E+07,
2461274.500000000, A.D. 2026-Aug-22 00:00:00.0000, 6.961522485502283E+07, 3.150295726454351E+08, 2.385955154432423E+07,
2461281.500000000, A.D. 2026-Aug-29 00:00:00.0000, 5.810705463114721E+07, 3.193134028442653E+08, 2.432550454910375E+07,
2461288.500000000, A.D. 2026-Sep-05 00:00:00.0000, 4.651696085915077E+07, 3.231476851694987E+08, 2.475720679187691E+07,
2461295.500000000, A.D. 2026-Sep-12 00:00:00.0000, 3.486241960241181E+07, 3.265350914276031E+08, 2.515466868131973E+07,
$$EOE